OBJECT_NAME,OBJECT_ID,EPOCH,MEAN_MOTION,ECCENTRICITY,INCLINATION,RA_OF_ASC_NODE,ARG_OF_PERICENTER,MEAN_ANOMALY,EPHEMERIS_TYPE,CLASSIFICATION_TYPE,NORAD_CAT_ID,ELEMENT_SET_NO,REV_AT_EPOCH,BSTAR,MEAN_MOTION_DOT,MEAN_MOTION_DDOT
STARLINK-3752,2022-041BD,2025-10-13T16:02:09.086208,15.08841330,.00015294,53.2167,29.0747,78.7455,281.3709,0,U,52312,999,19367,-.25301941E-4,-.691E-5,0
STARLINK-3749,2022-041BE,2025-10-13T16:07:28.497504,15.08802754,.00016287,53.2155,29.1071,93.1721,266.9458,0,U,52313,999,19367,.4250954E-3,.6477E-4,0
SUPERVIEW NEO-1 01,2022-043A,2025-10-13T22:31:23.561760,15.13406223,.00032417,97.3675,2.7276,71.1256,289.0327,0,U,52320,999,19227,.44521368E-3,.789E-4,0
SUPERVIEW NEO-1 02,2022-043C,2025-10-13T23:04:25.404096,15.13341403,.00032305,97.3669,2.7990,97.6308,262.5291,0,U,52322,999,19229,.47882016E-3,.8475E-4,0
STARLINK-3889,2022-045A,2025-10-13T07:54:38.460384,15.08835068,.00015757,53.2178,150.6460,88.4223,271.6950,0,U,52331,999,19339,.14877798E-4,-.51E-6,0
STARLINK-3831,2022-045B,2025-10-13T22:30:23.788512,15.08854866,.00013736,53.2147,147.9260,92.6164,267.4986,0,U,52332,999,19348,.39334181E-3,.598E-4,0
STARLINK-3847,2022-045C,2025-10-13T16:02:10.364928,15.08826269,.0001468,53.2171,149.1235,104.8542,255.2613,0,U,52333,999,19343,-.25299343E-4,-.69E-5,0
STARLINK-3880,2022-045D,2025-10-13T22:07:48.230400,15.08824563,.00010022,53.2085,147.9806,18.3569,341.7460,0,U,52334,999,19347,-.36917673E-3,-.6156E-4,0
STARLINK-3814,2022-045E,2025-10-13T22:02:30.894432,15.08822182,.00004511,53.2071,147.9983,7.7640,352.3358,0,U,52335,999,19348,-.1034094E-3,-.1932E-4,0
STARLINK-3823,2022-045F,2025-10-13T15:03:50.081472,15.08840478,.00014466,53.2136,149.1071,85.6133,274.5024,0,U,52336,999,19344,-.54711732E-4,-.1159E-4,0
STARLINK-3797,2022-045G,2025-10-13T07:59:54.590208,15.08896360,.00013054,53.2141,150.6288,110.2004,249.9129,0,U,52337,999,19339,-.81983352E-3,-.13332E-3,0
STARLINK-3792,2022-045J,2025-10-13T08:10:28.884576,15.08850700,.00012305,53.2142,150.2385,91.6208,268.4925,0,U,52339,999,19340,.27840038E-3,.4147E-4,0
STARLINK-3818,2022-045K,2025-10-13T20:49:38.402112,15.08840849,.00013389,53.2164,138.2295,86.7271,273.3874,0,U,52340,999,19360,.675566E-5,-.18E-5,0
STARLINK-3843,2022-045L,2025-10-13T21:41:18.141216,15.08838860,.00017403,53.2146,148.0189,92.4711,267.6480,0,U,52341,999,19348,.40304246E-4,.353E-5,0
STARLINK-3850,2022-045M,2025-10-13T20:54:57.847968,15.08841298,.00015642,53.2148,138.3296,93.0061,267.1110,0,U,52342,999,19361,.58027591E-4,.636E-5,0
STARLINK-3849,2022-045N,2025-10-13T20:58:55.455744,15.08836631,.00017678,53.2135,148.1994,102.0653,258.0538,0,U,52343,999,19348,-.19061762E-3,-.332E-4,0
STARLINK-3851,2022-045P,2025-10-13T22:14:27.053664,15.08842176,.0001264,53.2157,138.0334,65.6899,294.4225,0,U,52344,999,19362,.23621908E-3,.3474E-4,0
STARLINK-3852,2022-045Q,2025-10-13T21:17:34.238112,15.08819621,.00013846,53.2158,138.3063,89.4870,270.6281,0,U,52345,999,19360,-.82424286E-4,-.1599E-4,0
STARLINK-3812,2022-045R,2025-10-13T22:05:12.802848,15.08837675,.00013538,53.2160,138.0033,89.8206,270.2941,0,U,52346,999,19362,.18301314E-4,.3E-7,0
STARLINK-3826,2022-045S,2025-10-13T14:24:09.679392,15.08841371,.00027639,53.2091,139.4406,89.1797,270.9511,0,U,52347,999,19357,.82954922E-4,.1032E-4,0
STARLINK-3829,2022-045T,2025-10-13T21:53:14.248608,15.08840507,.00012836,53.2161,138.0309,91.1784,268.9355,0,U,52348,999,19362,.24359426E-4,.1E-5,0
STARLINK-3819,2022-045U,2025-10-13T22:09:07.371936,15.08834982,.00013308,53.2151,137.9816,88.9951,271.1193,0,U,52349,999,19362,-.3128245E-3,-.5262E-4,0
STARLINK-3754,2022-045V,2025-10-13T23:23:19.904352,15.08834265,.00013159,53.2162,137.7482,89.0566,271.0577,0,U,52350,999,19363,.35989724E-4,.285E-5,0
STARLINK-3838,2022-045X,2025-10-13T21:32:02.484672,15.08838307,.00012966,53.2135,138.0970,84.0265,276.0875,0,U,52352,999,19362,.21565324E-4,.55E-6,0
STARLINK-3807,2022-045Y,2025-10-13T23:18:01.567872,15.08839347,.00013428,53.2156,137.7658,92.7009,267.4137,0,U,52353,999,19363,.10810684E-3,.1433E-4,0
STARLINK-3877,2022-045AA,2025-10-13T23:12:43.732512,15.08836144,.00014465,53.2158,137.7830,91.1343,268.9815,0,U,52355,999,19363,.27403319E-4,.148E-5,0
STARLINK-3801,2022-045AB,2025-10-13T21:21:26.774208,15.08835538,.00013365,53.2154,138.1590,87.0850,273.0295,0,U,52356,999,19362,-.19700363E-4,-.601E-5,0
STARLINK-3821,2022-045AC,2025-10-13T21:26:44.676960,15.08831964,.00016351,53.2153,138.1138,89.5944,270.5235,0,U,52357,999,19362,-.84420272E-4,-.1631E-4,0
STARLINK-3837,2022-045AD,2025-10-13T21:00:14.402880,15.08843165,.00016909,53.2163,138.1969,89.7481,270.3705,0,U,52358,999,19362,.12674869E-4,-.86E-6,0
STARLINK-3853,2022-045AE,2025-10-13T21:22:49.617984,15.08833024,.00016163,53.2153,138.1383,97.4463,262.6712,0,U,52359,999,19362,-.12301013E-4,-.484E-5,0
STARLINK-3728,2022-045AG,2025-10-13T21:10:50.442528,15.08834832,.00013794,53.2132,138.1643,91.3057,268.8093,0,U,52361,999,19362,-.46955986E-4,-.1035E-4,0
STARLINK-3848,2022-045AH,2025-10-13T22:21:03.654720,15.08834240,.00014467,53.2174,127.9446,93.6215,266.4943,0,U,52362,999,19376,-.17368979E-4,-.564E-5,0
STARLINK-3830,2022-045AJ,2025-10-13T21:05:32.606304,15.08837376,.00016194,53.2161,138.1802,93.1757,266.9421,0,U,52363,999,19362,-.16380955E-3,-.2894E-4,0
STARLINK-3820,2022-045AK,2025-10-13T21:59:50.521344,15.08837514,.00013621,53.2156,127.9232,86.0264,274.0884,0,U,52364,999,19376,-.79102076E-4,-.1547E-4,0
STARLINK-3874,2022-045AL,2025-10-13T12:59:21.913440,15.08842614,.00014292,53.2159,129.6953,69.3509,290.7637,0,U,52365,999,19370,.19992542E-3,.2896E-4,0
STARLINK-3808,2022-045AM,2025-10-13T22:05:09.414240,15.08834656,.00013327,53.2148,127.9949,88.2103,271.9042,0,U,52366,999,19376,-.76033594E-4,-.1498E-4,0
STARLINK-3817,2022-045AN,2025-10-13T22:15:46.342944,15.08843198,.00011614,53.2151,127.9607,105.3474,254.7647,0,U,52367,999,19376,.30911077E-3,.4635E-4,0
STARLINK-3834,2022-045AP,2025-10-13T23:24:38.570688,15.08840368,.00013467,53.2158,127.7473,92.2668,267.8478,0,U,52368,999,19376,-.26221178E-4,-.705E-5,0
STARLINK-3841,2022-045AQ,2025-10-13T22:10:27.348960,15.08837258,.00013001,53.2155,127.9772,97.2472,262.8668,0,U,52369,999,19376,.8823363E-4,.1117E-4,0
STARLINK-3827,2022-045AR,2025-10-13T22:01:13.702944,15.08840363,.00013568,53.2155,128.0167,86.3370,273.7778,0,U,52370,999,19376,.60277102E-4,.672E-5,0
STARLINK-3798,2022-045AS,2025-10-13T21:55:56.194176,15.08837407,.00014009,53.2149,128.0334,88.4325,271.6827,0,U,52371,999,19375,.47878849E-4,.474E-5,0
STARLINK-3796,2022-045AT,2025-10-13T23:19:20.779392,15.08839978,.00014972,53.2158,127.7636,93.4146,266.7018,0,U,52372,999,19376,-.5010714E-5,-.368E-5,0
STARLINK-3550,2022-045AU,2025-10-13T23:03:26.895744,15.08841068,.00013645,53.2159,127.8106,88.0533,272.0616,0,U,52373,999,19377,.29140304E-4,.176E-5,0
STARLINK-3762,2022-045AV,2025-10-13T23:08:44.453760,15.08844499,.00012455,53.2158,127.7949,89.6145,270.4990,0,U,52374,999,19377,.10580342E-3,.1397E-4,0
STARLINK-3785,2022-045AW,2025-10-13T23:14:02.932800,15.08843241,.00013703,53.2160,127.7800,87.1165,272.9984,0,U,52375,999,19377,-.81080608E-4,-.1578E-4,0
STARLINK-3767,2022-045AX,2025-10-13T22:58:08.756256,15.08845042,.00010862,53.2157,127.8286,85.1683,274.9433,0,U,52376,999,19377,.52620699E-4,.55E-5,0
STARLINK-3805,2022-045AY,2025-10-13T21:54:36.107424,15.08840025,.00013883,53.2155,128.2482,85.8627,274.2523,0,U,52377,999,19375,-.13060817E-3,-.2366E-4,0
STARLINK-3806,2022-045AZ,2025-10-13T22:47:33.191808,15.08837314,.00013255,53.2155,127.8611,85.5666,274.5478,0,U,52378,999,19377,.47389046E-4,.466E-5,0
STARLINK-3800,2022-045BA,2025-10-13T22:52:51.303648,15.08840579,.0001359,53.2160,127.8434,88.6148,271.5000,0,U,52379,999,19377,.42880741E-4,.395E-5,0
STARLINK-3793,2022-045BB,2025-10-13T22:22:24.630528,15.08821937,.00015042,53.2156,117.9670,93.8693,266.2471,0,U,52380,999,19390,.13141499E-3,.1803E-4,0
STARLINK-3799,2022-045BD,2025-10-13T22:36:57.610080,15.08837118,.00013494,53.2150,127.9045,88.1306,271.9840,0,U,52382,999,19377,.7123994E-4,.846E-5,0
STARLINK-3811,2022-045BE,2025-10-13T23:10:04.604448,15.08837704,.00013422,53.2154,117.8204,88.0692,272.0454,0,U,52383,999,19391,.43649285E-4,.407E-5,0
JILIN-1 GAOFEN 4A,2022-046A,2025-10-13T22:49:40.672416,15.67483767,.00051374,97.4874,30.8360,189.6988,170.4175,0,U,52388,999,19216,.13787717E-2,.151731E-2,0
JILIN-1 GAOFEN 3D04,2022-046B,2025-10-13T21:53:54.707136,15.48612421,.00034563,97.4952,28.6833,208.1507,151.9557,0,U,52389,999,19198,.99935021E-3,.53551E-3,0
JILIN-1 GAOFEN 3D05,2022-046C,2025-10-13T23:50:10.004640,15.49501332,.00003496,97.4864,28.0599,103.2773,256.8517,0,U,52390,999,19203,.10040563E-2,.55506E-3,0
JILIN-1 GAOFEN 3D06,2022-046D,2025-10-13T23:27:32.480064,15.49253311,.0001383,97.5059,30.5761,175.3079,184.8185,0,U,52391,999,19203,.97724452E-3,.53541E-3,0
JILIN-1 GAOFEN 3D07,2022-046E,2025-10-13T22:29:15.510912,15.60126305,.00015865,97.4966,32.7263,264.8970,95.2105,0,U,52392,999,19225,.1066376E-2,.87225E-3,0
BRO-6,2022-047AE,2025-10-13T22:50:24.630144,15.39147947,.00040451,97.3570,10.4626,228.9850,131.1046,0,U,52422,999,19315,.4577593E-3,.17702E-3,0
JILIN-1 KUANFU 01C,2022-048A,2025-10-13T23:41:44.275200,15.10348037,.00166747,97.5498,3.1666,90.3156,269.9985,0,U,52443,999,19004,.32615562E-3,.5303E-4,0
JILIN-1 GAOFEN 3D27,2022-048B,2025-10-13T22:30:42.532128,15.42537179,.00075787,97.5694,21.0646,216.9475,143.1251,0,U,52444,999,19117,.95726956E-3,.4166E-3,0
JILIN-1 GAOFEN 3D28,2022-048C,2025-10-13T22:52:39.779616,15.43204215,.00060868,97.5658,20.8868,231.9789,128.0909,0,U,52445,999,19119,.92584347E-3,.41182E-3,0
JILIN-1 GAOFEN 3D29,2022-048D,2025-10-13T22:52:08.805216,15.42702353,.00037924,97.5699,21.3702,198.1600,161.9512,0,U,52446,999,19119,.92218356E-3,.40315E-3,0
JILIN-1 GAOFEN 3D30,2022-048E,2025-10-13T22:36:24.594048,15.45376771,.00090961,97.5687,22.3369,212.1805,147.8889,0,U,52447,999,19127,.94078221E-3,.45098E-3,0
